OBJECT_NAME,OBJECT_ID,EPOCH,MEAN_MOTION,ECCENTRICITY,INCLINATION,RA_OF_ASC_NODE,ARG_OF_PERICENTER,MEAN_ANOMALY,EPHEMERIS_TYPE,CLASSIFICATION_TYPE,NORAD_CAT_ID,ELEMENT_SET_NO,REV_AT_EPOCH,BSTAR,MEAN_MOTION_DOT,MEAN_MOTION_DDOT
LEMUR-2-FINNIAN,2025-276DX,2026-07-20T18:09:03.377376,15.00651615,.00068821,97.5347,271.7055,339.6977,20.3973,0,U,66782,999,2503,.13237825E-3,.1617E-4,0
LEMUR-2-STARLIGHT,2025-276DY,2026-07-20T22:36:08.763840,14.99401727,.0014588,97.5237,271.4283,29.8169,330.3883,0,U,66783,999,3525,.40585034E-3,.4923E-4,0
LEMUR-2-TARTIFLETTE,2025-276DZ,2026-07-20T17:45:38.407968,14.99379550,.00138278,97.5234,271.2411,39.2662,320.9562,0,U,66784,999,3522,.32935968E-3,.3981E-4,0
LEMUR-2-VUKASIN,2025-276EA,2026-07-20T21:44:38.653152,15.00577178,.00021636,97.5201,271.7688,34.4346,325.7018,0,U,66785,999,3520,.27508631E-3,.3416E-4,0
LEMUR-2-HOTSPUR-TOM,2025-276EB,2026-07-20T17:38:07.043136,14.99275319,.00135776,97.5213,271.2081,31.1148,329.0877,0,U,66786,999,3515,.28641293E-3,.3444E-4,0
LEMUR-2-MYRA,2025-276EC,2026-07-20T03:18:04.328640,15.00621723,.00185732,97.5221,270.9458,39.1220,321.1343,0,U,66787,999,3515,.26939967E-3,.3359E-4,0
LEMUR-2 FIKRETDENGIZ,2026-004A,2026-07-20T22:46:18.512832,14.88543101,.00097849,97.8036,199.9951,39.3350,320.8576,0,U,67363,999,2830,.32833972E-3,.3002E-4,0
TWILIGHT-1 OBJECT B,2026-004B,2026-07-20T22:07:00.338880,14.87805783,.00093204,97.8078,199.9657,29.1912,330.9824,0,U,67364,999,2830,.12710287E-3,.1107E-4,0
LEMUR-2-MARIO-SOUSA,2026-004C,2026-07-20T22:16:07.894560,14.88755561,.00094129,97.8008,199.9694,41.0009,319.1914,0,U,67365,999,2831,.33717189E-3,.31E-4,0
LEMUR-2-SONNENBLUME,2026-004E,2026-07-20T22:21:47.116512,14.88471798,.00090568,97.8004,199.9432,41.9708,318.2201,0,U,67367,999,2831,.18964181E-3,.1707E-4,0
LEMUR-2-WOBLER,2026-004F,2026-07-20T22:04:59.096352,14.88723615,.00090422,97.8057,200.0887,33.5965,326.5824,0,U,67368,999,2831,.26153397E-3,.239E-4,0
LEMUR-2-GRAM-E-SUE,2026-004H,2026-07-20T21:54:16.811712,14.88605933,.00082727,97.7991,199.9412,45.2715,314.9175,0,U,67370,999,2831,.16658006E-3,.1498E-4,0
LEMUR-2-KATIE,2026-004AA,2026-07-20T22:19:47.397216,14.90280450,.00029457,97.8050,200.5292,19.5341,340.5989,0,U,67387,999,2833,.34503989E-3,.3295E-4,0
LEMUR-2-HCS-BAZUS,2026-004AB,2026-07-20T22:17:22.195968,14.90287445,.0002451,97.8039,200.5051,20.8536,339.2782,0,U,67388,999,2833,.28544109E-3,.2717E-4,0
