LEMUR-2-FINNIAN         
1 66782U 25276DX  26201.75628909  .00001617  00000+0  13238-3 0  9992
2 66782  97.5347 271.7055 0006882 339.6977  20.3973 15.00651615 25035
LEMUR-2-STARLIGHT       
1 66783U 25276DY  26201.94176810  .00004923  00000+0  40585-3 0  9991
2 66783  97.5237 271.4283 0014588  29.8169 330.3883 14.99401727 35250
LEMUR-2-TARTIFLETTE     
1 66784U 25276DZ  26201.74002787  .00003981  00000+0  32936-3 0  9995
2 66784  97.5234 271.2411 0013827  39.2662 320.9562 14.99379550 35221
LEMUR-2-VUKASIN         
1 66785U 25276EA  26201.90600293  .00003416  00000+0  27509-3 0  9993
2 66785  97.5201 271.7688 0002163  34.4346 325.7018 15.00577178 35200
LEMUR-2-HOTSPUR-TOM     
1 66786U 25276EB  26201.73480374  .00003444  00000+0  28641-3 0  9990
2 66786  97.5213 271.2081 0013577  31.1148 329.0877 14.99275319 35154
LEMUR-2-MYRA            
1 66787U 25276EC  26201.13755010  .00003359  00000+0  26940-3 0  9992
2 66787  97.5221 270.9458 0018573  39.1220 321.1343 15.00621723 35156
LEMUR-2 FIKRETDENGIZ    
1 67363U 26004A   26201.94882538  .00003002  00000+0  32834-3 0  9992
2 67363  97.8036 199.9951 0009784  39.3350 320.8576 14.88543101 28303
TWILIGHT-1 OBJECT B     
1 67364U 26004B   26201.92153170  .00001107  00000+0  12710-3 0  9999
2 67364  97.8078 199.9657 0009320  29.1912 330.9824 14.87805783 28304
LEMUR-2-MARIO-SOUSA     
1 67365U 26004C   26201.92786915  .00003100  00000+0  33717-3 0  9994
2 67365  97.8008 199.9694 0009412  41.0009 319.1914 14.88755561 28310
LEMUR-2-SONNENBLUME     
1 67367U 26004E   26201.93179533  .00001707  00000+0  18964-3 0  9997
2 67367  97.8004 199.9432 0009056  41.9708 318.2201 14.88471798 28313
LEMUR-2-WOBLER          
1 67368U 26004F   26201.92012843  .00002390  00000+0  26153-3 0  9995
2 67368  97.8057 200.0887 0009042  33.5965 326.5824 14.88723615 28318
LEMUR-2-GRAM-E-SUE      
1 67370U 26004H   26201.91269458  .00001498  00000+0  16658-3 0  9990
2 67370  97.7991 199.9412 0008272  45.2715 314.9175 14.88605933 28316
LEMUR-2-KATIE           
1 67387U 26004AA  26201.93040969  .00003295  00000+0  34504-3 0  9991
2 67387  97.8050 200.5292 0002945  19.5341 340.5989 14.90280450 28332
LEMUR-2-HCS-BAZUS       
1 67388U 26004AB  26201.92872912  .00002717  00000+0  28544-3 0  9997
2 67388  97.8039 200.5051 0002451  20.8536 339.2782 14.90287445 28333
